start=new Date('2021-08-24T00:00:00.000Z').valueOf();
sats=[{"SITE":"AFETR","PERIAPSIS":"545.866","PERIOD":"95.593","RCS_SIZE":"LARGE","TIME_SYSTEM":"UTC","DECAY_DATE":null,"MEAN_MOTION":"15.06392047","ELEMENT_SET_NO":"999","SEMIMAJOR_AXIS":"6925.373","EPOCH":"2021-08-23T21:34:43.929984","INCLINATION":"53.0557","NORAD_CAT_ID":"47779","APOAPSIS":"548.610","BSTAR":"-0.00008046100000","EPHEMERIS_TYPE":"0","ARG_OF_PERICENTER":"70.1870","MEAN_ELEMENT_THEORY":"SGP4","REV_AT_EPOCH":"2773","ECCENTRICITY":"0.00019810","TLE_LINE2":"2 47779  53.0557  98.2086 0001981  70.1870 289.9333 15.06392047 27739","REF_FRAME":"TEME","MEAN_MOTION_DOT":"-0.00001480","GP_ID":"183330936","RA_OF_ASC_NODE":"98.2086","OBJECT_NAME":"STARLINK-2212","CLASSIFICATION_TYPE":"U","OBJECT_ID":"2021-017BK","COUNTRY_CODE":"US","MEAN_MOTION_DDOT":"0.0000000000000","FILE":"3102124","CENTER_NAME":"EARTH","MEAN_ANOMALY":"289.9333","TLE_LINE1":"1 47779U 21017BK  21235.89911956 -.00001480  00000-0 -80461-4 0  9994","LAUNCH_DATE":"2021-03-04","OBJECT_TYPE":"PAYLOAD"},{"TLE_LINE2":"2 47780  53.0557  98.2000 0002161  79.3271 280.7961 15.06394255 27766","REF_FRAME":"TEME","REV_AT_EPOCH":"2776","ECCENTRICITY":"0.00021610","APOAPSIS":"548.728","BSTAR":"-0.00007231500000","EPHEMERIS_TYPE":"0","MEAN_ELEMENT_THEORY":"SGP4","ARG_OF_PERICENTER":"79.3271","NORAD_CAT_ID":"47780","SEMIMAJOR_AXIS":"6925.366","EPOCH":"2021-08-23T21:38:40.542432","INCLINATION":"53.0557","TIME_SYSTEM":"UTC","MEAN_MOTION":"15.06394255","DECAY_DATE":null,"ELEMENT_SET_NO":"999","PERIOD":"95.593","RCS_SIZE":"LARGE","SITE":"AFETR","PERIAPSIS":"545.735","TLE_LINE1":"1 47780U 21017BL  21235.90185813 -.00001359  00000-0 -72315-4 0  9997","LAUNCH_DATE":"2021-03-04","OBJECT_TYPE":"PAYLOAD","MEAN_ANOMALY":"280.7961","CENTER_NAME":"EARTH","COUNTRY_CODE":"US","MEAN_MOTION_DDOT":"0.0000000000000","FILE":"3102124","OBJECT_ID":"2021-017BL","CLASSIFICATION_TYPE":"U","RA_OF_ASC_NODE":"98.2000","OBJECT_NAME":"STARLINK-2213","MEAN_MOTION_DOT":"-0.00001359","GP_ID":"183329684"},{"RCS_SIZE":"LARGE","PERIOD":"95.593","SITE":"AFETR","PERIAPSIS":"545.908","EPOCH":"2021-08-23T22:38:25.772640","SEMIMAJOR_AXIS":"6925.371","INCLINATION":"53.0557","TIME_SYSTEM":"UTC","ELEMENT_SET_NO":"999","MEAN_MOTION":"15.06392651","DECAY_DATE":null,"BSTAR":"-0.00006203400000","APOAPSIS":"548.564","MEAN_ELEMENT_THEORY":"SGP4","ARG_OF_PERICENTER":"83.7768","EPHEMERIS_TYPE":"0","NORAD_CAT_ID":"47781","TLE_LINE2":"2 47781  53.0557  98.0152 0001918  83.7768 276.3440 15.06392651 27729","REF_FRAME":"TEME","REV_AT_EPOCH":"2772","ECCENTRICITY":"0.00019180","RA_OF_ASC_NODE":"98.0152","OBJECT_NAME":"STARLINK-2223","MEAN_MOTION_DOT":"-0.00001205","GP_ID":"183329934","OBJECT_ID":"2021-017BM","CLASSIFICATION_TYPE":"U","CENTER_NAME":"EARTH","COUNTRY_CODE":"US","FILE":"3102124","MEAN_MOTION_DDOT":"0.0000000000000","TLE_LINE1":"1 47781U 21017BM  21235.94335385 -.00001205  00000-0 -62034-4 0  9990","OBJECT_TYPE":"PAYLOAD","LAUNCH_DATE":"2021-03-04","MEAN_ANOMALY":"276.3440"},{"MEAN_MOTION_DOT":"-0.00000615","GP_ID":"183331186","RA_OF_ASC_NODE":"138.2335","OBJECT_NAME":"STARLINK-2257","CLASSIFICATION_TYPE":"U","OBJECT_ID":"2021-018A","COUNTRY_CODE":"US","FILE":"3102124","MEAN_MOTION_DDOT":"0.0000000000000","CENTER_NAME":"EARTH","MEAN_ANOMALY":"306.6908","TLE_LINE1":"1 47787U 21018A   21235.89543497 -.00000615  00000-0 -22419-4 0  9993","OBJECT_TYPE":"PAYLOAD","LAUNCH_DATE":"2021-03-11","SITE":"AFETR","PERIAPSIS":"545.928","RCS_SIZE":"LARGE","PERIOD":"95.593","TIME_SYSTEM":"UTC","ELEMENT_SET_NO":"999","MEAN_MOTION":"15.06391631","DECAY_DATE":null,"EPOCH":"2021-08-23T21:29:25.581408","SEMIMAJOR_AXIS":"6925.374","INCLINATION":"53.0559","NORAD_CAT_ID":"47787","BSTAR":"-0.00002241900000","APOAPSIS":"548.550","ARG_OF_PERICENTER":"53.4255","MEAN_ELEMENT_THEORY":"SGP4","EPHEMERIS_TYPE":"0","REV_AT_EPOCH":"2657","ECCENTRICITY":"0.00018930","TLE_LINE2":"2 47787  53.0559 138.2335 0001893  53.4255 306.6908 15.06391631 26579","REF_FRAME":"TEME"},{"TLE_LINE2":"2 47788  53.0553 119.5580 0001400  70.6022 289.5128 15.27742605 26853","REF_FRAME":"TEME","REV_AT_EPOCH":"2685","ECCENTRICITY":"0.00014000","BSTAR":"0.00007340600000","APOAPSIS":"483.525","MEAN_ELEMENT_THEORY":"SGP4","ARG_OF_PERICENTER":"70.6022","EPHEMERIS_TYPE":"0","NORAD_CAT_ID":"47788","EPOCH":"2021-08-23T22:54:51.676128","SEMIMAJOR_AXIS":"6860.699","INCLINATION":"53.0553","TIME_SYSTEM":"UTC","ELEMENT_SET_NO":"999","DECAY_DATE":null,"MEAN_MOTION":"15.27742605","RCS_SIZE":"LARGE","PERIOD":"94.257","SITE":"AFETR","PERIAPSIS":"481.604","TLE_LINE1":"1 47788U 21018B   21235.95476477  .00001667  00000-0  73406-4 0  9992","OBJECT_TYPE":"PAYLOAD","LAUNCH_DATE":"2021-03-11","MEAN_ANOMALY":"289.5128","CENTER_NAME":"EARTH","COUNTRY_CODE":"US","FILE":"3102124","MEAN_MOTION_DDOT":"0.0000000000000","OBJECT_ID":"2021-018B","CLASSIFICATION_TYPE":"U","RA_OF_ASC_NODE":"119.5580","OBJECT_NAME":"STARLINK-2314","MEAN_MOTION_DOT":"0.00001667","GP_ID":"183331437"},{"SITE":"AFETR","PERIAPSIS":"545.717","RCS_SIZE":"LARGE","PERIOD":"95.592","TIME_SYSTEM":"UTC","ELEMENT_SET_NO":"999","MEAN_MOTION":"15.06401835","DECAY_DATE":null,"EPOCH":"2021-08-23T22:56:59.860032","SEMIMAJOR_AXIS":"6925.343","INCLINATION":"53.0572","NORAD_CAT_ID":"47789","BSTAR":"0.00006172900000","APOAPSIS":"548.699","MEAN_ELEMENT_THEORY":"SGP4","ARG_OF_PERICENTER":"76.5576","EPHEMERIS_TYPE":"0","REV_AT_EPOCH":"2687","ECCENTRICITY":"0.00021530","TLE_LINE2":"2 47789  53.0572 117.9386 0002153  76.5576 283.5653 15.06401835 26879","REF_FRAME":"TEME","MEAN_MOTION_DOT":"0.00000638","GP_ID":"183330185","RA_OF_ASC_NODE":"117.9386","OBJECT_NAME":"STARLINK-2315","CLASSIFICATION_TYPE":"U","OBJECT_ID":"2021-018C","COUNTRY_CODE":"US","FILE":"3102124","MEAN_MOTION_DDOT":"0.0000000000000","CENTER_NAME":"EARTH","MEAN_ANOMALY":"283.5653","TLE_LINE1":"1 47789U 21018C   21235.95624838  .00000638  00000-0  61729-4 0  9991","OBJECT_TYPE":"PAYLOAD","LAUNCH_DATE":"2021-03-11"},{"SITE":"AFETR","PERIAPSIS":"472.751","RCS_SIZE":"LARGE","PERIOD":"94.078","TIME_SYSTEM":"UTC","ELEMENT_SET_NO":"999","MEAN_MOTION":"15.30642912","DECAY_DATE":null,"EPOCH":"2021-08-23T21:44:18.497760","SEMIMAJOR_AXIS":"6852.030","INCLINATION":"53.0554","NORAD_CAT_ID":"47790","BSTAR":"0.00002360100000","APOAPSIS":"475.039","ARG_OF_PERICENTER":"64.6605","MEAN_ELEMENT_THEORY":"SGP4","EPHEMERIS_TYPE":"0","REV_AT_EPOCH":"2687","ECCENTRICITY":"0.00016690","TLE_LINE2":"2 47790  53.0554 117.8347 0001669  64.6605 295.4567 15.30642912 26875","REF_FRAME":"TEME","MEAN_MOTION_DOT":"0.00000347","GP_ID":"183330435","RA_OF_ASC_NODE":"117.8347","OBJECT_NAME":"STARLINK-2319","CLASSIFICATION_TYPE":"U","OBJECT_ID":"2021-018D","COUNTRY_CODE":"US","FILE":"3102124","MEAN_MOTION_DDOT":"0.0000000000000","CENTER_NAME":"EARTH","MEAN_ANOMALY":"295.4567","TLE_LINE1":"1 47790U 21018D   21235.90576965  .00000347  00000-0  23601-4 0  9999","OBJECT_TYPE":"PAYLOAD","LAUNCH_DATE":"2021-03-11"},{"CLASSIFICATION_TYPE":"U","OBJECT_ID":"2021-018E","GP_ID":"183330686","MEAN_MOTION_DOT":"-0.00001115","OBJECT_NAME":"STARLINK-2322","RA_OF_ASC_NODE":"137.9549","MEAN_ANOMALY":"311.2547","OBJECT_TYPE":"PAYLOAD","LAUNCH_DATE":"2021-03-11","TLE_LINE1":"1 47791U 21018E   21235.95072800 -.00001115  00000-0 -55913-4 0  9991","FILE":"3102124","MEAN_MOTION_DDOT":"0.0000000000000","COUNTRY_CODE":"US","CENTER_NAME":"EARTH","ELEMENT_SET_NO":"999","DECAY_DATE":null,"MEAN_MOTION":"15.06393088","TIME_SYSTEM":"UTC","INCLINATION":"53.0631","EPOCH":"2021-08-23T22:49:02.899200","SEMIMAJOR_AXIS":"6925.370","PERIAPSIS":"545.258","SITE":"AFETR","RCS_SIZE":"LARGE","PERIOD":"95.593","ECCENTRICITY":"0.00028550","REV_AT_EPOCH":"2659","REF_FRAME":"TEME","TLE_LINE2":"2 47791  53.0631 137.9549 0002855  48.8688 311.2547 15.06393088 26596","NORAD_CAT_ID":"47791","MEAN_ELEMENT_THEORY":"SGP4","ARG_OF_PERICENTER":"48.8688","EPHEMERIS_TYPE":"0","BSTAR":"-0.00005591300000","APOAPSIS":"549.212"},{"SITE":"AFETR","PERIAPSIS":"545.656","RCS_SIZE":"LARGE","PERIOD":"95.592","TIME_SYSTEM":"UTC","ELEMENT_SET_NO":"999","DECAY_DATE":null,"MEAN_MOTION":"15.06403133","EPOCH":"2021-08-23T23:07:36.865632","SEMIMAJOR_AXIS":"6925.339","INCLINATION":"53.0562","NORAD_CAT_ID":"47792","BSTAR":"0.00006206400000","APOAPSIS":"548.752","ARG_OF_PERICENTER":"78.8112","MEAN_ELEMENT_THEORY":"SGP4","EPHEMERIS_TYPE":"0","REV_AT_EPOCH":"2687","ECCENTRICITY":"0.00022350","TLE_LINE2":"2 47792  53.0562 117.9186 0002235  78.8112 281.3128 15.06403133 26878","REF_FRAME":"TEME","MEAN_MOTION_DOT":"0.00000643","GP_ID":"183330937","RA_OF_ASC_NODE":"117.9186","OBJECT_NAME":"STARLINK-2334","CLASSIFICATION_TYPE":"U","OBJECT_ID":"2021-018F","COUNTRY_CODE":"US","FILE":"3102124","MEAN_MOTION_DDOT":"0.0000000000000","CENTER_NAME":"EARTH","MEAN_ANOMALY":"281.3128","TLE_LINE1":"1 47792U 21018F   21235.96362113  .00000643  00000-0  62064-4 0  9990","OBJECT_TYPE":"PAYLOAD","LAUNCH_DATE":"2021-03-11"},{"CLASSIFICATION_TYPE":"U","OBJECT_ID":"2021-018G","GP_ID":"183329685","MEAN_MOTION_DOT":"0.00000749","OBJECT_NAME":"STARLINK-2338","RA_OF_ASC_NODE":"118.1461","MEAN_ANOMALY":"278.4009","LAUNCH_DATE":"2021-03-11","OBJECT_TYPE":"PAYLOAD","TLE_LINE1":"1 47793U 21018G   21235.91201163  .00000749  00000-0  69228-4 0  9999","MEAN_MOTION_DDOT":"0.0000000000000","FILE":"3102124","COUNTRY_CODE":"US","CENTER_NAME":"EARTH","DECAY_DATE":null,"MEAN_MOTION":"15.06395675","ELEMENT_SET_NO":"999","TIME_SYSTEM":"UTC","INCLINATION":"53.0553","SEMIMAJOR_AXIS":"6925.362","EPOCH":"2021-08-23T21:53:17.804832","PERIAPSIS":"545.533","SITE":"AFETR","PERIOD":"95.592","RCS_SIZE":"LARGE","ECCENTRICITY":"0.00024460","REV_AT_EPOCH":"2685","REF_FRAME":"TEME","TLE_LINE2":"2 47793  53.0553 118.1461 0002446  81.7257 278.4009 15.06395675 26859","NORAD_CAT_ID":"47793","EPHEMERIS_TYPE":"0","ARG_OF_PERICENTER":"81.7257","MEAN_ELEMENT_THEORY":"SGP4","APOAPSIS":"548.921","BSTAR":"0.00006922800000"}];
